OBJECT_NAME,OBJECT_ID,EPOCH,MEAN_MOTION,ECCENTRICITY,INCLINATION,RA_OF_ASC_NODE,ARG_OF_PERICENTER,MEAN_ANOMALY,EPHEMERIS_TYPE,CLASSIFICATION_TYPE,NORAD_CAT_ID,ELEMENT_SET_NO,REV_AT_EPOCH,BSTAR,MEAN_MOTION_DOT,MEAN_MOTION_DDOT
IRNSS-1C,2014-061A,2024-01-20T08:01:12.427968,1.00275182,.0017684,4.3017,108.7115,1.3445,212.3805,0,U,40269,999,3387,0,-.161E-5,0
NAVSTAR 73 (USA 260),2015-013A,2024-01-20T13:37:17.140800,2.00574723,.0086519,53.4013,240.5589,28.5069,332.0308,0,U,40534,999,6462,0,.71E-6,0
GSAT0203 (GALILEO 7),2015-017A,2024-01-19T08:04:50.024640,1.70475727,.0005409,56.9196,5.5411,274.3005,85.6396,0,U,40544,999,5420,0,-.87E-6,0
GSAT0204 (GALILEO 8),2015-017B,2024-01-20T04:15:16.583328,1.70475440,.0004913,56.9261,5.5330,264.4560,95.4887,0,U,40545,999,1726,0,-.89E-6,0
IRNSS-1D,2015-018A,2024-01-19T13:15:14.724000,1.00265146,.0018726,27.7910,255.2870,179.1795,354.4710,0,U,40547,999,3242,0,-.257E-5,0
BEIDOU-3S IGSO-1S,2015-019A,2024-01-19T18:22:42.595392,1.00282018,.00355,50.8487,305.9542,194.7717,349.0522,0,U,40549,999,3225,0,-.197E-5,0
NAVSTAR 74 (USA 262),2015-033A,2024-01-20T05:31:35.359968,2.00574706,.0091517,54.7267,303.1264,16.0510,344.2598,0,U,40730,999,6236,0,-.76E-6,0
BEIDOU-3S M2S,2015-037A,2024-01-19T06:06:26.381664,1.86232978,.0011513,55.5794,332.1257,264.1158,95.7480,0,U,40748,999,5773,0,-.105E-5,0
BEIDOU-3S M1S,2015-037B,2024-01-20T01:28:48.341568,1.86232896,.0006926,55.5823,332.0850,324.9380,35.0096,0,U,40749,999,5775,0,-.11E-5,0
GSAT0205 (GALILEO 9),2015-045A,2024-01-19T22:42:09.552960,1.70473092,.0006301,55.2893,245.8942,36.8709,323.2460,0,U,40889,999,5202,0,.55E-6,0
GSAT0206 (GALILEO 10),2015-045B,2024-01-20T03:59:52.791936,1.70473227,.0004275,55.2881,245.8836,34.8956,325.2067,0,U,40890,999,5205,0,.56E-6,0
BEIDOU-3S IGSO-2S,2015-053A,2024-01-17T14:30:45.749088,1.00252427,.0046153,50.5932,269.1737,191.7705,325.9662,0,U,40938,999,3051,0,-.107E-5,0
NAVSTAR 75 (USA 265),2015-062A,2024-01-20T06:46:01.095168,2.00562260,.0094421,56.2761,64.9079,224.1003,135.1994,0,U,41019,999,6020,0,-.66E-6,0
GSAT-15,2015-065A,2024-01-19T14:52:55.018272,1.00273532,.000201,0.0938,266.4220,350.9223,177.8563,0,U,41028,999,3004,0,-.253E-5,0
GSAT0209 (GALILEO 12),2015-079A,2024-01-18T13:51:05.418720,1.70474723,.000252,55.3587,125.4547,309.0026,50.9607,0,U,41174,999,4976,0,-.15E-6,0
GSAT0208 (GALILEO 11),2015-079B,2024-01-19T09:12:05.874048,1.70474220,.0004323,55.3574,125.4304,292.0164,67.9203,0,U,41175,999,5019,0,-.23E-6,0
IRNSS-1E,2016-003A,2024-01-18T14:50:58.693632,1.00274643,.0021818,31.2882,75.7390,189.5490,186.8229,0,U,41241,999,2937,0,-.315E-5,0
NAVSTAR 76 (USA 266),2016-007A,2024-01-19T20:49:01.885152,2.00568998,.0076137,55.0671,124.3853,235.2928,123.9800,0,U,41328,999,5820,0,-.34E-6,0
COSMOS 2514,2016-008A,2024-01-20T08:38:02.502816,2.13102590,.0010505,65.4616,342.9962,225.6783,134.2298,0,U,41330,999,6189,0,-.81E-6,0
IRNSS-1F,2016-015A,2024-01-20T06:03:39.824064,1.00267503,.0021499,3.2298,123.6583,184.9694,293.8293,0,U,41384,999,2885,0,.16E-5,0
BEIDOU-2 IGSO-6,2016-021A,2024-01-20T13:00:32.582592,1.00256416,.0049449,58.9528,46.8512,225.5940,135.1077,0,U,41434,999,2867,0,-.14E-5,0
IRNSS-1G,2016-027A,2024-01-20T13:24:00.770400,1.00276171,.0003834,3.1142,125.0390,273.2787,51.5985,0,U,41469,999,2836,0,-.333E-5,0
GSAT0211 (GALILEO 14),2016-030A,2024-01-20T02:12:54.281088,1.70473307,.0004173,55.4357,245.8808,8.7062,351.3752,0,U,41549,999,4768,0,.56E-6,0
GSAT0210 (GALILEO 13),2016-030B,2024-01-19T19:07:41.118816,1.70473475,.000204,55.4354,245.8900,351.3572,8.7123,0,U,41550,999,4767,0,.54E-6,0
BEIDOU-2 G7,2016-037A,2024-01-20T12:11:42.838944,1.00272286,.0009343,1.5518,67.3041,314.8368,30.7280,0,U,41586,999,2797,0,-.351E-5,0
EUTELSAT 117 WEST B,2016-038B,2024-01-20T07:09:12.492000,1.00272075,.0000218,0.0070,126.1706,261.4959,81.7948,0,U,41589,999,2785,0,-.7E-7,0
GSAT0212 (GALILEO 16),2016-069B,2024-01-19T21:33:52.382880,1.70474927,.0001535,55.0204,125.4530,325.6450,34.3254,0,U,41860,999,4466,0,-.28E-6,0
